start=new Date('2023-02-28T00:00:00.000Z').valueOf();
sats=[{"DECAY_DATE":null,"FILE":"3846812","SITE":"AFETR","MEAN_ANOMALY":"185.3303","RA_OF_ASC_NODE":"312.1109","SEMIMAJOR_AXIS":"6862.720","TLE_LINE1":"1 45195U 20012T   23058.81664700  .00110437  00000-0  40558-2 0  9999","PERIOD":"94.298","APOAPSIS":"486.719","COUNTRY_CODE":"US","EPHEMERIS_TYPE":"0","MEAN_MOTION":"15.27067823","TLE_LINE2":"2 45195  53.0552 312.1109 0003109 174.7728 185.3303 15.27067823168427","ELEMENT_SET_NO":"999","EPOCH":"2023-02-27T19:35:58.300800","TIME_SYSTEM":"UTC","ECCENTRICITY":"0.00031090","RCS_SIZE":"LARGE","GP_ID":"227192103","LAUNCH_DATE":"2020-02-17","PERIAPSIS":"482.452","CLASSIFICATION_TYPE":"U","INCLINATION":"53.0552","ARG_OF_PERICENTER":"174.7728","OBJECT_TYPE":"PAYLOAD","REV_AT_EPOCH":"16842","NORAD_CAT_ID":"45195","BSTAR":"0.00405580000000","CENTER_NAME":"EARTH","MEAN_ELEMENT_THEORY":"SGP4","REF_FRAME":"TEME","MEAN_MOTION_DDOT":"0.0000000000000","OBJECT_ID":"2020-012T","MEAN_MOTION_DOT":"0.00110437","OBJECT_NAME":"STARLINK-1241"},{"ECCENTRICITY":"0.00010290","TIME_SYSTEM":"UTC","ELEMENT_SET_NO":"999","EPOCH":"2023-02-27T03:26:45.700800","MEAN_MOTION":"15.06403062","TLE_LINE2":"2 45196  53.0531 334.1042 0001029  84.8079 275.3028 15.06403062168109","EPHEMERIS_TYPE":"0","COUNTRY_CODE":"US","APOAPSIS":"547.917","PERIOD":"95.592","SEMIMAJOR_AXIS":"6925.339","RA_OF_ASC_NODE":"334.1042","TLE_LINE1":"1 45196U 20012U   23058.14358450  .00019438  00000-0  13201-2 0  9992","SITE":"AFETR","MEAN_ANOMALY":"275.3028","DECAY_DATE":null,"FILE":"3846396","OBJECT_NAME":"STARLINK-1244","OBJECT_ID":"2020-012U","MEAN_MOTION_DDOT":"0.0000000000000","MEAN_MOTION_DOT":"0.00019438","BSTAR":"0.00132010000000","MEAN_ELEMENT_THEORY":"SGP4","REF_FRAME":"TEME","CENTER_NAME":"EARTH","NORAD_CAT_ID":"45196","ARG_OF_PERICENTER":"84.8079","INCLINATION":"53.0531","REV_AT_EPOCH":"16810","OBJECT_TYPE":"PAYLOAD","CLASSIFICATION_TYPE":"U","LAUNCH_DATE":"2020-02-17","PERIAPSIS":"546.492","RCS_SIZE":"LARGE","GP_ID":"227156159"},{"TIME_SYSTEM":"UTC","EPOCH":"2023-02-27T01:35:18.613824","ELEMENT_SET_NO":"999","ECCENTRICITY":"0.00010730","COUNTRY_CODE":"US","EPHEMERIS_TYPE":"0","APOAPSIS":"547.854","TLE_LINE2":"2 45197  53.0543 334.4449 0001073 121.5580 238.5514 15.06433516168010","MEAN_MOTION":"15.06433516","TLE_LINE1":"1 45197U 20012V   23058.06618766  .00027378  00000-0  18481-2 0  9990","SEMIMAJOR_AXIS":"6925.246","RA_OF_ASC_NODE":"334.4449","PERIOD":"95.590","FILE":"3846396","DECAY_DATE":null,"MEAN_ANOMALY":"238.5514","SITE":"AFETR","MEAN_MOTION_DOT":"0.00027378","OBJECT_ID":"2020-012V","MEAN_MOTION_DDOT":"0.0000000000000","OBJECT_NAME":"STARLINK-1269","NORAD_CAT_ID":"45197","CENTER_NAME":"EARTH","MEAN_ELEMENT_THEORY":"SGP4","REF_FRAME":"TEME","BSTAR":"0.00184810000000","CLASSIFICATION_TYPE":"U","REV_AT_EPOCH":"16801","OBJECT_TYPE":"PAYLOAD","INCLINATION":"53.0543","ARG_OF_PERICENTER":"121.5580","RCS_SIZE":"LARGE","GP_ID":"227154907","LAUNCH_DATE":"2020-02-17","PERIAPSIS":"546.368"},{"TLE_LINE1":"1 45198U 20012W   23058.72042377  .00047147  00000-0  31565-2 0  9997","SEMIMAJOR_AXIS":"6925.116","RA_OF_ASC_NODE":"311.5112","PERIOD":"95.587","FILE":"3846812","DECAY_DATE":null,"MEAN_ANOMALY":"297.8478","SITE":"AFETR","TIME_SYSTEM":"UTC","ELEMENT_SET_NO":"999","EPOCH":"2023-02-27T17:17:24.613728","ECCENTRICITY":"0.00005110","COUNTRY_CODE":"US","EPHEMERIS_TYPE":"0","APOAPSIS":"547.335","TLE_LINE2":"2 45198  53.0521 311.5112 0000511  62.2562 297.8478 15.06475843168361","MEAN_MOTION":"15.06475843","CLASSIFICATION_TYPE":"U","REV_AT_EPOCH":"16836","OBJECT_TYPE":"PAYLOAD","INCLINATION":"53.0521","ARG_OF_PERICENTER":"62.2562","GP_ID":"227190852","RCS_SIZE":"LARGE","LAUNCH_DATE":"2020-02-17","PERIAPSIS":"546.627","MEAN_MOTION_DOT":"0.00047147","OBJECT_ID":"2020-012W","MEAN_MOTION_DDOT":"0.0000000000000","OBJECT_NAME":"STARLINK-1154","NORAD_CAT_ID":"45198","REF_FRAME":"TEME","MEAN_ELEMENT_THEORY":"SGP4","CENTER_NAME":"EARTH","BSTAR":"0.00315650000000"},{"ECCENTRICITY":"0.00010920","TIME_SYSTEM":"UTC","EPOCH":"2023-02-27T17:22:43.403808","ELEMENT_SET_NO":"999","MEAN_MOTION":"15.06489702","TLE_LINE2":"2 45199  53.0531 311.4956 0001092  80.1247 279.9865 15.06489702168429","COUNTRY_CODE":"US","EPHEMERIS_TYPE":"0","APOAPSIS":"547.695","PERIOD":"95.586","SEMIMAJOR_AXIS":"6925.074","RA_OF_ASC_NODE":"311.4956","TLE_LINE1":"1 45199U 20012X   23058.72411347  .00057600  00000-0  38451-2 0  9991","SITE":"AFETR","MEAN_ANOMALY":"279.9865","DECAY_DATE":null,"FILE":"3846812","OBJECT_NAME":"STARLINK-1197","OBJECT_ID":"2020-012X","MEAN_MOTION_DDOT":"0.0000000000000","MEAN_MOTION_DOT":"0.00057600","BSTAR":"0.00384510000000","CENTER_NAME":"EARTH","REF_FRAME":"TEME","MEAN_ELEMENT_THEORY":"SGP4","NORAD_CAT_ID":"45199","INCLINATION":"53.0531","ARG_OF_PERICENTER":"80.1247","REV_AT_EPOCH":"16842","OBJECT_TYPE":"PAYLOAD","CLASSIFICATION_TYPE":"U","PERIAPSIS":"546.182","LAUNCH_DATE":"2020-02-17","RCS_SIZE":"LARGE","GP_ID":"227191604"},{"DECAY_DATE":null,"FILE":"3846396","SITE":"AFETR","MEAN_ANOMALY":"266.9256","SEMIMAJOR_AXIS":"6925.336","RA_OF_ASC_NODE":"314.1433","TLE_LINE1":"1 45201U 20012Z   23058.13439782  .00011077  00000-0  76124-3 0  9991","PERIOD":"95.592","COUNTRY_CODE":"US","EPHEMERIS_TYPE":"0","APOAPSIS":"547.918","MEAN_MOTION":"15.06404111","TLE_LINE2":"2 45201  53.0528 314.1433 0001036  93.1852 266.9256 15.06404111168334","TIME_SYSTEM":"UTC","EPOCH":"2023-02-27T03:13:31.971648","ELEMENT_SET_NO":"999","ECCENTRICITY":"0.00010360","RCS_SIZE":"LARGE","GP_ID":"227156658","LAUNCH_DATE":"2020-02-17","PERIAPSIS":"546.483","CLASSIFICATION_TYPE":"U","ARG_OF_PERICENTER":"93.1852","INCLINATION":"53.0528","REV_AT_EPOCH":"16833","OBJECT_TYPE":"PAYLOAD","NORAD_CAT_ID":"45201","BSTAR":"0.00076124000000","CENTER_NAME":"EARTH","MEAN_ELEMENT_THEORY":"SGP4","REF_FRAME":"TEME","OBJECT_ID":"2020-012Z","MEAN_MOTION_DDOT":"0.0000000000000","MEAN_MOTION_DOT":"0.00011077","OBJECT_NAME":"STARLINK-1199"},{"RA_OF_ASC_NODE":"283.3773","SEMIMAJOR_AXIS":"6815.184","TLE_LINE1":"1 45202U 20012AA  23058.87870012  .00277231  00000-0  59627-2 0  9992","PERIOD":"93.320","DECAY_DATE":null,"FILE":"3846812","SITE":"AFETR","MEAN_ANOMALY":"153.6802","ELEMENT_SET_NO":"999","EPOCH":"2023-02-27T21:05:19.690368","TIME_SYSTEM":"UTC","ECCENTRICITY":"0.00080790","APOAPSIS":"442.555","EPHEMERIS_TYPE":"0","COUNTRY_CODE":"US","MEAN_MOTION":"15.43072642","TLE_LINE2":"2 45202  52.9593 283.3773 0008079 206.3792 153.6802 15.43072642168783","CLASSIFICATION_TYPE":"U","ARG_OF_PERICENTER":"206.3792","INCLINATION":"52.9593","OBJECT_TYPE":"PAYLOAD","REV_AT_EPOCH":"16878","GP_ID":"227191102","RCS_SIZE":"LARGE","PERIAPSIS":"431.543","LAUNCH_DATE":"2020-02-17","MEAN_MOTION_DDOT":"0.0000000000000","OBJECT_ID":"2020-012AA","MEAN_MOTION_DOT":"0.00277231","OBJECT_NAME":"STARLINK-1203","NORAD_CAT_ID":"45202","BSTAR":"0.00596270000000","MEAN_ELEMENT_THEORY":"SGP4","REF_FRAME":"TEME","CENTER_NAME":"EARTH"},{"DECAY_DATE":null,"FILE":"3846812","SITE":"AFETR","MEAN_ANOMALY":"262.8761","RA_OF_ASC_NODE":"310.4515","SEMIMAJOR_AXIS":"6925.196","TLE_LINE1":"1 45204U 20012AC  23058.95632728  .00030911  00000-0  20822-2 0  9990","PERIOD":"95.589","APOAPSIS":"548.067","EPHEMERIS_TYPE":"0","COUNTRY_CODE":"US","MEAN_MOTION":"15.06449938","TLE_LINE2":"2 45204  53.0528 310.4515 0001453  97.2394 262.8761 15.06449938168473","ELEMENT_SET_NO":"999","EPOCH":"2023-02-27T22:57:06.676992","TIME_SYSTEM":"UTC","ECCENTRICITY":"0.00014530","GP_ID":"227191352","RCS_SIZE":"LARGE","LAUNCH_DATE":"2020-02-17","PERIAPSIS":"546.054","CLASSIFICATION_TYPE":"U","ARG_OF_PERICENTER":"97.2394","INCLINATION":"53.0528","OBJECT_TYPE":"PAYLOAD","REV_AT_EPOCH":"16847","NORAD_CAT_ID":"45204","BSTAR":"0.00208220000000","CENTER_NAME":"EARTH","MEAN_ELEMENT_THEORY":"SGP4","REF_FRAME":"TEME","MEAN_MOTION_DDOT":"0.0000000000000","OBJECT_ID":"2020-012AC","MEAN_MOTION_DOT":"0.00030911","OBJECT_NAME":"STARLINK-1206"},{"NORAD_CAT_ID":"45205","BSTAR":"0.00331800000000","MEAN_ELEMENT_THEORY":"SGP4","CENTER_NAME":"EARTH","REF_FRAME":"TEME","OBJECT_ID":"2020-012AD","MEAN_MOTION_DDOT":"0.0000000000000","MEAN_MOTION_DOT":"0.00049589","OBJECT_NAME":"STARLINK-1208","GP_ID":"227192104","RCS_SIZE":"LARGE","LAUNCH_DATE":"2020-02-17","PERIAPSIS":"546.056","CLASSIFICATION_TYPE":"U","ARG_OF_PERICENTER":"92.5402","INCLINATION":"53.0549","REV_AT_EPOCH":"16844","OBJECT_TYPE":"PAYLOAD","COUNTRY_CODE":"US","EPHEMERIS_TYPE":"0","APOAPSIS":"547.913","MEAN_MOTION":"15.06474796","TLE_LINE2":"2 45205  53.0549 311.5393 0001341  92.5402 267.5740 15.06474796168443","TIME_SYSTEM":"UTC","EPOCH":"2023-02-27T17:06:48.322656","ELEMENT_SET_NO":"999","ECCENTRICITY":"0.00013410","DECAY_DATE":null,"FILE":"3846812","SITE":"AFETR","MEAN_ANOMALY":"267.5740","SEMIMAJOR_AXIS":"6925.119","RA_OF_ASC_NODE":"311.5393","TLE_LINE1":"1 45205U 20012AD  23058.71305929  .00049589  00000-0  33180-2 0  9997","PERIOD":"95.587"},{"ECCENTRICITY":"0.00005750","ELEMENT_SET_NO":"999","EPOCH":"2023-02-27T22:33:14.333472","TIME_SYSTEM":"UTC","TLE_LINE2":"2 45206  53.0531 290.5233 0000575  79.1108 280.9945 15.06446355167788","MEAN_MOTION":"15.06446355","APOAPSIS":"547.470","COUNTRY_CODE":"US","EPHEMERIS_TYPE":"0","PERIOD":"95.589","TLE_LINE1":"1 45206U 20012AE  23058.93974923  .00021862  00000-0  14802-2 0  9992","RA_OF_ASC_NODE":"290.5233","SEMIMAJOR_AXIS":"6925.206","MEAN_ANOMALY":"280.9945","SITE":"AFETR","FILE":"3846812","DECAY_DATE":null,"OBJECT_NAME":"STARLINK-1209","MEAN_MOTION_DOT":"0.00021862","MEAN_MOTION_DDOT":"0.0000000000000","OBJECT_ID":"2020-012AE","REF_FRAME":"TEME","CENTER_NAME":"EARTH","MEAN_ELEMENT_THEORY":"SGP4","BSTAR":"0.00148020000000","NORAD_CAT_ID":"45206","OBJECT_TYPE":"PAYLOAD","REV_AT_EPOCH":"16778","INCLINATION":"53.0531","ARG_OF_PERICENTER":"79.1108","CLASSIFICATION_TYPE":"U","PERIAPSIS":"546.673","LAUNCH_DATE":"2020-02-17","GP_ID":"227191855","RCS_SIZE":"LARGE"}];
